OBJECT_NAME,OBJECT_ID,EPOCH,MEAN_MOTION,ECCENTRICITY,INCLINATION,RA_OF_ASC_NODE,ARG_OF_PERICENTER,MEAN_ANOMALY,EPHEMERIS_TYPE,CLASSIFICATION_TYPE,NORAD_CAT_ID,ELEMENT_SET_NO,REV_AT_EPOCH,BSTAR,MEAN_MOTION_DOT,MEAN_MOTION_DDOT
STARLINK-31145,2024-011D,2025-07-16T04:14:33.163008,15.13009176,.000147,53.1630,31.9354,112.7915,247.3234,0,U,58768,999,8394,.63673E-2,.115284E-2,0
STARLINK-31146,2024-011E,2025-07-16T06:00:02.000160,15.18625996,.0002222,53.1603,31.4994,61.3057,33.3903,0,U,58769,999,8407,.86797E-1,.2022009E-1,0
STARLINK-31143,2024-011F,2025-07-14T23:35:33.238176,15.12527905,.0001646,53.1620,37.2834,40.1455,319.9659,0,U,58770,999,8388,.25705E-2,.45292E-3,0
STARLINK-31135,2024-011G,2025-07-15T21:09:50.703840,15.30198038,.0001229,53.1617,31.5355,84.2433,275.8708,0,U,58771,999,8404,.51235E-4,.1158E-4,0
STARLINK-31136,2024-011H,2025-07-15T21:47:19.238784,15.12975695,.0001699,53.1622,33.0989,103.5539,256.5644,0,U,58772,999,8400,.60531E-2,.109387E-2,0
STARLINK-31073,2024-011J,2025-07-15T23:22:57.031680,15.12404681,.0001267,53.1613,32.8044,126.4331,233.6779,0,U,58773,999,8391,.21803E-2,.382E-3,0
STARLINK-31122,2024-011K,2025-07-15T22:00:01.999584,15.12686638,.0001453,53.1636,33.0543,80.0646,329.0887,0,U,58774,999,8400,.68969E-1,.1325846E-1,0
STARLINK-31123,2024-011L,2025-07-15T22:00:01.999584,15.14562663,.0001423,53.1647,32.8981,79.9303,50.8091,0,U,58775,999,584,.6521E-1,.132052E-1,0
STARLINK-31117,2024-011M,2025-07-15T21:40:14.759904,15.12121594,.0001257,53.1617,33.0621,93.1081,267.0056,0,U,58776,999,8402,.34568E-4,.305E-5,0
STARLINK-31132,2024-011N,2025-07-15T15:02:18.856896,15.30193248,.0001264,53.1613,304.6708,78.2770,281.8373,0,U,58777,999,8526,.48577E-4,.1079E-4,0
STARLINK-31120,2024-011P,2025-07-15T19:55:31.670688,15.12109099,.0001492,53.1628,33.3194,105.9166,254.1991,0,U,58778,999,8401,-.17179E-4,-.597E-5,0
STARLINK-31142,2024-011Q,2025-07-16T06:00:02.000160,15.12130227,.0000864,53.1616,31.3926,91.9664,51.3166,0,U,58779,999,8405,-.12279E-2,-.21635E-3,0
STARLINK-31099,2024-011S,2025-07-15T21:05:05.899200,15.12127549,.0001227,53.1609,32.9160,86.9483,273.1650,0,U,58781,999,8402,.48134E-4,.541E-5,0
STARLINK-31060,2024-011T,2025-07-15T21:37:49.677024,15.39615933,.0000947,53.1593,267.8228,83.6943,276.4170,0,U,58782,999,8568,.1268E-4,.108E-5,0
STARLINK-31047,2024-011U,2025-07-15T20:44:37.611744,15.30195653,.0000979,53.1608,18.1604,84.0849,276.0263,0,U,58783,999,8423,.6028E-4,.1426E-4,0
STARLINK-31039,2024-011V,2025-07-15T21:09:17.327520,15.12124742,.0001416,53.1620,32.9307,87.8128,272.3027,0,U,58784,999,8402,.75841E-4,.1024E-4,0
STARLINK-31034,2024-011W,2025-07-15T13:12:25.461216,15.30197251,.0001261,53.1603,292.8039,78.7054,281.4088,0,U,58785,999,8529,.71974E-4,.1773E-4,0
STARLINK-31024,2024-011X,2025-07-15T22:00:01.999584,15.30178125,.0001342,53.1590,31.4900,85.0212,43.1908,0,U,58786,999,579,.11464E-2,.33725E-3,0
STARLINK-31189,2024-012A,2025-07-15T08:37:17.076288,15.27577816,.000178,43.0044,65.2056,272.5255,87.5393,0,U,58787,999,8494,.12769E-4,.89E-6,0
STARLINK-31185,2024-012B,2025-07-15T21:40:43.291776,15.25911771,.0001281,43.0011,62.4145,263.3941,96.6764,0,U,58788,999,8502,.60793E-4,.1333E-4,0
STARLINK-31166,2024-012C,2025-07-15T22:03:19.467648,15.25914353,.0001134,43.0027,61.6460,272.3408,87.7313,0,U,58789,999,8489,.50593E-4,.1066E-4,0
STARLINK-31187,2024-012D,2025-07-15T21:34:12.557280,15.25928436,.0001366,43.0010,62.3810,273.9449,86.1245,0,U,58790,999,8503,-.96937E-4,-.2794E-4,0
STARLINK-31162,2024-012E,2025-07-16T00:41:02.495904,15.27602563,.0001371,43.0047,61.6244,268.4564,91.6130,0,U,58791,999,8506,-.7335E-4,-.2281E-4,0
STARLINK-31184,2024-012G,2025-07-16T00:32:56.703264,15.25916634,.0001666,43.0020,61.5875,276.6410,83.4251,0,U,58793,999,8496,.93038E-4,.2177E-4,0
STARLINK-31192,2024-012H,2025-07-16T06:00:02.000160,15.25925774,.0001405,43.0009,59.6952,272.1915,145.8353,0,U,58794,999,8494,-.61388E-3,-.16288E-3,0
STARLINK-31161,2024-012J,2025-07-15T22:52:11.102592,15.25909308,.0001051,43.0010,61.9170,249.0982,110.9756,0,U,58795,999,8504,.49453E-4,.1036E-4,0
STARLINK-31195,2024-012K,2025-07-15T08:40:35.488704,15.25909518,.0001185,43.0034,65.2192,273.1531,86.9184,0,U,58796,999,8494,.57427E-4,.1245E-4,0
STARLINK-31193,2024-012L,2025-07-16T00:19:55.140096,15.25915251,.0001122,43.0056,61.5093,256.2085,103.8641,0,U,58797,999,8505,.87873E-4,.2042E-4,0
STARLINK-31168,2024-012M,2025-07-15T00:42:46.985472,15.25904675,.0001055,43.0047,67.0233,268.8382,91.2349,0,U,58798,999,8489,.3118E-4,.558E-5,0
STARLINK-31191,2024-012P,2025-07-15T22:39:08.814528,15.25915506,.0000897,43.0025,61.8401,269.1495,90.9253,0,U,58800,999,8489,.64607E-4,.1433E-4,0
