STARLINK-31145          
1 58768U 24011D   25197.17677272  .00115284  00000+0  63673-2 0  9992
2 58768  53.1630  31.9354 0001470 112.7915 247.3234 15.13009176 83949
STARLINK-31146          
1 58769U 24011E   25197.25002315  .02022009  00000+0  86797-1 0  9997
2 58769  53.1603  31.4994 0002222  61.3057  33.3903 15.18625996 84077
STARLINK-31143          
1 58770U 24011F   25195.98302359  .00045292  00000+0  25705-2 0  9998
2 58770  53.1620  37.2834 0001646  40.1455 319.9659 15.12527905 83885
STARLINK-31135          
1 58771U 24011G   25196.88183685  .00001158  00000+0  51235-4 0  9990
2 58771  53.1617  31.5355 0001229  84.2433 275.8708 15.30198038 84044
STARLINK-31136          
1 58772U 24011H   25196.90786156  .00109387  00000+0  60531-2 0  9996
2 58772  53.1622  33.0989 0001699 103.5539 256.5644 15.12975695 84007
STARLINK-31073          
1 58773U 24011J   25196.97427120  .00038200  00000+0  21803-2 0  9991
2 58773  53.1613  32.8044 0001267 126.4331 233.6779 15.12404681 83918
STARLINK-31122          
1 58774U 24011K   25196.91668981  .01325846  00000+0  68969-1 0  9997
2 58774  53.1636  33.0543 0001453  80.0646 329.0887 15.12686638 84007
STARLINK-31123          
1 58775U 24011L   25196.91668981  .01320520  00000+0  65210-1 0  9998
2 58775  53.1647  32.8981 0001423  79.9303  50.8091 15.14562663  5841
STARLINK-31117          
1 58776U 24011M   25196.90294861  .00000305  00000+0  34568-4 0  9990
2 58776  53.1617  33.0621 0001257  93.1081 267.0056 15.12121594 84021
STARLINK-31132          
1 58777U 24011N   25196.62660714  .00001079  00000+0  48577-4 0  9998
2 58777  53.1613 304.6708 0001264  78.2770 281.8373 15.30193248 85266
STARLINK-31120          
1 58778U 24011P   25196.83022767 -.00000597  00000+0 -17179-4 0  9992
2 58778  53.1628  33.3194 0001492 105.9166 254.1991 15.12109099 84010
STARLINK-31142          
1 58779U 24011Q   25197.25002315 -.00021635  00000+0 -12279-2 0  9997
2 58779  53.1616  31.3926 0000864  91.9664  51.3166 15.12130227 84050
STARLINK-31099          
1 58781U 24011S   25196.87854050  .00000541  00000+0  48134-4 0  9990
2 58781  53.1609  32.9160 0001227  86.9483 273.1650 15.12127549 84021
STARLINK-31060          
1 58782U 24011T   25196.90126941  .00000108  00000+0  12680-4 0  9992
2 58782  53.1593 267.8228 0000947  83.6943 276.4170 15.39615933 85685
STARLINK-31047          
1 58783U 24011U   25196.86432421  .00001426  00000+0  60280-4 0  9994
2 58783  53.1608  18.1604 0000979  84.0849 276.0263 15.30195653 84235
STARLINK-31039          
1 58784U 24011V   25196.88145055  .00001024  00000+0  75841-4 0  9994
2 58784  53.1620  32.9307 0001416  87.8128 272.3027 15.12124742 84027
STARLINK-31034          
1 58785U 24011W   25196.55029469  .00001773  00000+0  71974-4 0  9993
2 58785  53.1603 292.8039 0001261  78.7054 281.4088 15.30197251 85296
STARLINK-31024          
1 58786U 24011X   25196.91668981  .00033725  00000+0  11464-2 0  9990
2 58786  53.1590  31.4900 0001342  85.0212  43.1908 15.30178125  5793
STARLINK-31189          
1 58787U 24012A   25196.35922542  .00000089  00000+0  12769-4 0  9994
2 58787  43.0044  65.2056 0001780 272.5255  87.5393 15.27577816 84949
STARLINK-31185          
1 58788U 24012B   25196.90327884  .00001333  00000+0  60793-4 0  9997
2 58788  43.0011  62.4145 0001281 263.3941  96.6764 15.25911771 85021
STARLINK-31166          
1 58789U 24012C   25196.91897532  .00001066  00000+0  50593-4 0  9991
2 58789  43.0027  61.6460 0001134 272.3408  87.7313 15.25914353 84899
STARLINK-31187          
1 58790U 24012D   25196.89875645 -.00002794  00000+0 -96937-4 0  9994
2 58790  43.0010  62.3810 0001366 273.9449  86.1245 15.25928436 85030
STARLINK-31162          
1 58791U 24012E   25197.02850111 -.00002281  00000+0 -73350-4 0  9997
2 58791  43.0047  61.6244 0001371 268.4564  91.6130 15.27602563 85066
STARLINK-31184          
1 58793U 24012G   25197.02287851  .00002177  00000+0  93038-4 0  9991
2 58793  43.0020  61.5875 0001666 276.6410  83.4251 15.25916634 84962
STARLINK-31192          
1 58794U 24012H   25197.25002315 -.00016288  00000+0 -61388-3 0  9999
2 58794  43.0009  59.6952 0001405 272.1915 145.8353 15.25925774 84945
STARLINK-31161          
1 58795U 24012J   25196.95290628  .00001036  00000+0  49453-4 0  9995
2 58795  43.0010  61.9170 0001051 249.0982 110.9756 15.25909308 85047
STARLINK-31195          
1 58796U 24012K   25196.36152186  .00001245  00000+0  57427-4 0  9999
2 58796  43.0034  65.2192 0001185 273.1531  86.9184 15.25909518 84949
STARLINK-31193          
1 58797U 24012L   25197.01383264  .00002042  00000+0  87873-4 0  9990
2 58797  43.0056  61.5093 0001122 256.2085 103.8641 15.25915251 85051
STARLINK-31168          
1 58798U 24012M   25196.02971048  .00000558  00000+0  31180-4 0  9994
2 58798  43.0047  67.0233 0001055 268.8382  91.2349 15.25904675 84897
STARLINK-31191          
1 58800U 24012P   25196.94385202  .00001433  00000+0  64607-4 0  9993
2 58800  43.0025  61.8401 0000897 269.1495  90.9253 15.25915506 84893
